STARLINK-2575
1 18396C 21038AV  21326.17502451  .00004882  00000-0  32722-3 0  3268
2 18396  53.0536 182.9382 0001847  83.6271 220.8547 15.06380155    17
